SL-4 R/B                
1 39679U 14021B   25365.14744390  .00018334  00000+0  42750-3 0  9994
2 39679  51.6084 311.1066 0100337 212.7412 146.7327 15.37137176645726
ALOS-2                  
1 39766U 14029A   25365.20680385  .00002729  00000+0  37235-3 0  9992
2 39766  97.9214  99.7891 0001252 108.5286 251.6062 14.79455785626740
YAOGAN-29               
1 41038U 15069A   25365.17331031  .00001388  00000+0  17790-3 0  9993
2 41038  98.0213  28.4035 0001371 151.5263 208.6025 14.82907031545729
ASTRO-H (HITOMI)        
1 41337U 16012A   25364.54491750  .00005837  00000+0  34951-3 0  9990
2 41337  30.9999  82.5743 0009605 357.4048   2.6539 15.09483600541774
HXMT (HUIYAN)           
1 42758U 17034A   25365.16894612  .00010857  00000+0  55165-3 0  9994
2 42758  43.0155  37.3451 0031919 163.8098 196.3776 15.16488868472138
CZ-2C R/B               
1 43521U 18054D   25365.16661152  .00169173  00000+0  91690-3 0  9996
2 43521  35.1334  55.5667 0013248 326.8497  33.1406 15.78441934417967
SAOCOM 1A               
1 43641U 18076A   25365.16981853 -.00000217  00000+0 -20663-4 0  9994
2 43641  97.8848 189.3232 0001406  82.0858 278.0515 14.82155018391213
H-2A R/B                
1 43682U 18084L   25365.10794022  .00032652  00000+0  85981-3 0  9991
2 43682  98.8768 203.0042 0026146 261.7793  98.0481 15.38133745395227
SAOCOM 1B               
1 46265U 20059A   25365.20106044  .00000895  00000+0  11898-3 0  9998
2 46265  97.8844 188.4533 0001406  84.7228 275.4145 14.82159888288605
CSS (TIANHE)            
1 48274U 21035A   25365.09344150  .00027123  00000+0  32908-3 0  9992
2 48274  41.4668 265.2206 0009747 186.8831 173.1875 15.59942629266896
COSMOS 2550             
1 48865U 21056A   25365.17979293 -.00000173  00000+0  55791-6 0  9997
2 48865  67.1441 248.1581 0008351 269.6155  90.4042 15.33836810252956
CZ-2C R/B               
1 52794U 22058K   25365.12813762  .00045929  00000+0  78781-3 0  9997
2 52794  50.1917 309.7067 0044078 273.8841  85.7089 15.49579460199488
